BRITE-AUSTRIA           
1 39091U 13009F   26158.73546881  .00000212  00000+0  86658-4 0  9990
2 39091  98.3993 338.4054 0008958 268.4216  91.5944 14.36538507695690
SBIRS GEO-2 (USA 241)   
1 39120U 13011A   26158.47830242 -.00000272  00000+0  00000+0 0  9993
2 39120   4.4696  52.5057 0002177  17.0704 308.6858  1.00272460 48435
EUTELSAT 117 WEST A     
1 39122U 13012A   26158.60760498  .00000002  00000+0  00000+0 0  9996
2 39122   0.0425  62.9936 0002852  17.4598 277.4922  1.00272042 48335
ANIK G1                 
1 39127U 13014A   26158.68078006 -.00000059  00000+0  00000+0 0  9991
2 39127   0.0447  87.7873 0001746 342.3597 323.7133  1.00271947 48151
GAOFEN-1                
1 39150U 13018A   26158.77887682  .00000302  00000+0  50569-4 0  9999
2 39150  97.9091 231.0378 0015917 299.8820  60.0808 14.76526631706859
NEE-01 PEGASO           
1 39151U 13018B   26158.14984891  .00003603  00000+0  34660-3 0  9991
2 39151  98.1215 301.9695 0012393 190.8803 169.2150 14.93612333709204
COSMOS 2485 [GLONASS-M] 
1 39155U 13019A   26157.11703028 -.00000007  00000+0  00000+0 0  9996
2 39155  65.4139  73.9758 0023482 234.9271 124.8751  2.13103501102040
ZHONGXING-11            
1 39157U 13020A   26158.91794025 -.00000276  00000+0  00000+0 0  9994
2 39157   0.0308  39.6313 0002538  31.3402 253.7157  1.00274028 47807
PROBA-V                 
1 39159U 13021A   26158.70099086  .00000094  00000+0  59063-4 0  9994
2 39159  98.3579 137.7762 0004696 146.4543 213.6935 14.23595027679767
VNREDSAT 1              
1 39160U 13021B   26158.86753233  .00000571  00000+0  11535-3 0  9995
2 39160  97.9081 212.6413 0001700  90.6787 269.4612 14.64847183698929
EUTELSAT 7B             
1 39163U 13022A   26158.77477711  .00000063  00000+0  00000+0 0  9990
2 39163   0.0683   9.6083 0005046  26.2175 146.2645  1.00271185 47852
NAVSTAR 68 (USA 242)    
1 39166U 13023A   26158.21158304 -.00000031  00000+0  00000+0 0  9993
2 39166  54.5121 269.3802 0141608  50.9995 310.2743  2.00563548 95683
WGS F5 (USA 243)        
1 39168U 13024A   26158.76299038 -.00000269  00000+0  00000+0 0  9999
2 39168   0.0191 309.6637 0000277  88.6861  79.9907  1.00270128 47088
SES-6                   
1 39172U 13026A   26158.76533038 -.00000246  00000+0  00000+0 0  9992
2 39172   0.0225 318.5847 0002702 135.3289  37.2768  1.00270488 47634
COSMOS 2486             
1 39177U 13028A   26158.87467701  .00000186  00000+0  51976-4 0  9999
2 39177  98.0141 126.6355 0012125  49.4054 310.8198 14.56190562690023
O3B FM5                 
1 39188U 13031A   26158.64514448 -.00000011  00000+0  00000+0 0  9996
2 39188   0.0992 347.2339 0002986  76.5287 296.2699  5.00116559236569
O3B FM4                 
1 39189U 13031B   26158.56465846 -.00000011  00000+0  00000+0 0  9995
2 39189   0.0433 346.0499 0005088  82.1038 291.9022  5.00115248236563
O3B FM2                 
1 39190U 13031C   26158.63018213 -.00000011  00000+0  00000+0 0  9997
2 39190   0.0390 340.0580 0002762  93.8851 286.0890  5.00116040236637
O3B PFM                 
1 39191U 13031D   26158.64430159 -.00000011  00000+0  00000+0 0  9996
2 39191   0.0683 353.7359 0005330  79.1419 287.1823  5.00115987236197
IRIS                    
1 39197U 13033A   26158.80443294  .00001302  00000+0  15514-3 0  9999
2 39197  97.9336 358.1109 0024283 353.2047   6.8835 14.85867631698987
IRNSS-1A                
1 39199U 13034A   26142.85947303  .00000059  00000+0  00000+0 0  9998
2 39199  35.6649  64.2334 0016618 185.3754 355.4646  1.00280263 47111
SJ-11-05                
1 39202U 13035A   26158.83483512  .00000672  00000+0  13506-3 0  9996
2 39202  98.2861 343.5822 0008597 265.2549  94.7672 14.64880080687860
MUOS-2                  
1 39206U 13036A   26158.60066110  .00000001  00000+0  00000+0 0  9994
2 39206   4.9771  45.5214 0050633 177.9917  60.6612  1.00271551 47092
SHIYAN-7 (SY-7)         
1 39208U 13037A   26158.72796641  .00000748  00000+0  12641-3 0  9995
2 39208  98.0884 162.0169 0008040 166.9088 193.2329 14.72274912690818
CHUANGXIN-3 (CX-3)      
1 39209U 13037B   26158.76679274  .00001205  00000+0  18851-3 0  9990
2 39209  98.0812 165.0243 0004710 146.8365 213.3140 14.74592693690963
SHIJIAN-15 (SJ-15)      
1 39210U 13037C   26158.84665064  .00000818  00000+0  13987-3 0  9997
2 39210  98.1042 161.8850 0006383 164.9745 195.1653 14.71490963692951
ALPHASAT                
1 39215U 13038A   26158.56437630  .00000147  00000+0  00000+0 0  9991
2 39215   2.9979   1.4237 0001959  77.3938  45.1864  1.00270633 43924
INSAT-3D                
1 39216U 13038B   26158.79901956 -.00000324  00000+0  00000+0 0  9992
2 39216   1.9008  82.6631 0000843 320.0423 270.6425  1.00274279 46981
WGS F6 (USA 244)        
1 39222U 13041A   26158.74655943  .00000104  00000+0  00000+0 0  9995
2 39222   0.0180 353.3941 0000104  86.7566 309.5924  1.00271538 45963
ARIRANG-5 (KOMPSAT-5)   
1 39227U 13042A   26158.85478353  .00002322  00000+0  16992-3 0  9996
2 39227  97.6215 345.6867 0004125 143.8029 216.3476 15.04557028702457
ES'HAIL 1               
1 39233U 13044A   26158.70711455  .00000158  00000+0  00000+0 0  9996
2 39233   0.0483   1.1225 0002381  71.3585 103.6611  1.00270716 46531
